[{"OBJECT_NAME":"IRIDIUM 163","OBJECT_ID":"2018-061G","EPOCH":"2026-03-09T13:59:42.401760","MEAN_MOTION":14.34217733,"ECCENTRICITY":0.0002172,"INCLINATION":86.3916,"RA_OF_ASC_NODE":98.3882,"ARG_OF_PERICENTER":91.0803,"MEAN_ANOMALY":269.0641,"EPHEMERIS_TYPE":0,"CLASSIFICATION_TYPE":"U","NORAD_CAT_ID":43575,"ELEMENT_SET_NO":999,"REV_AT_EPOCH":39910,"BSTAR":2.0406e-5,"MEAN_MOTION_DOT":7.7e-7,"MEAN_MOTION_DDOT":0},{"OBJECT_NAME":"OBJECT H","OBJECT_ID":"2024-092H","EPOCH":"2026-03-09T22:10:57.432576","MEAN_MOTION":14.31801309,"ECCENTRICITY":0.00131217,"INCLINATION":98.6549,"RA_OF_ASC_NODE":188.1402,"ARG_OF_PERICENTER":138.5744,"MEAN_ANOMALY":221.6437,"EPHEMERIS_TYPE":0,"CLASSIFICATION_TYPE":"U","NORAD_CAT_ID":59780,"ELEMENT_SET_NO":999,"REV_AT_EPOCH":9469,"BSTAR":0.00013575326,"MEAN_MOTION_DOT":3.19e-6,"MEAN_MOTION_DDOT":0}]
